[{"OBJECT_NAME":"STARLINK-30267","OBJECT_ID":"2023-124A","EPOCH":"2026-03-09T16:23:58.085088","MEAN_MOTION":15.3019399,"ECCENTRICITY":8.421e-5,"INCLINATION":53.1593,"RA_OF_ASC_NODE":207.0548,"ARG_OF_PERICENTER":72.3184,"MEAN_ANOMALY":287.7909,"EPHEMERIS_TYPE":0,"CLASSIFICATION_TYPE":"U","NORAD_CAT_ID":57663,"ELEMENT_SET_NO":999,"REV_AT_EPOCH":14356,"BSTAR":-3.6713404e-5,"MEAN_MOTION_DOT":-1.446e-5,"MEAN_MOTION_DDOT":0},{"OBJECT_NAME":"ION SCV-015","OBJECT_ID":"2023-185H","EPOCH":"2026-03-09T22:36:51.209568","MEAN_MOTION":15.3163624,"ECCENTRICITY":0.00109059,"INCLINATION":97.5772,"RA_OF_ASC_NODE":155.3582,"ARG_OF_PERICENTER":92.3805,"MEAN_ANOMALY":267.8685,"EPHEMERIS_TYPE":0,"CLASSIFICATION_TYPE":"U","NORAD_CAT_ID":58469,"ELEMENT_SET_NO":999,"REV_AT_EPOCH":12588,"BSTAR":0.00030895808,"MEAN_MOTION_DOT":9.376e-5,"MEAN_MOTION_DDOT":0}]
